NOAA 2 (ITOS-D)
1  6235U 72082A   26056.03502147 -.00000024  00000-0  14393-3 0  9996
2  6235 102.0173  73.3435 0004107  29.2151 353.5875 12.53211309440909
SOLRAD-7B
1  1291U 65016D   26056.17991222 -.00000001  00000-0  38231-4 0  9996
2  1291  70.0784 114.3949 0023936 268.1195  91.7170 13.94960518101088
OSCAR-7 (AO-7)
1  7530U 74089B   26056.01854304 -.00000029  00000-0  10937-3 0  9992
2  7530 101.9972  68.0720 0012081 346.6016  36.4824 12.53696028346469
UOSAT-2 (UO-11)
1 14781U 84021B   26055.85104095  .00001665  00000-0  17635-3 0  9999
2 14781  97.7924  22.7926 0007251 184.0720 176.0440 14.90451799240395
FLTSATCOM-7 (USA-20)
1 17181U 86096A   26055.75890904 -.00000053  00000-0  00000-0 0  9996
2 17181  12.7912 340.7899 0043699 327.6539 213.5638  0.98926195150854
FLTSATCOM-8 (USA-46)
1 20253U 89077A   26055.69390874 -.00000368  00000-0  00000-0 0  9995
2 20253  12.4521 351.8374 0008766 332.2183 206.0017  1.00267001259435
OSCAR 16 (PACSAT)
1 20439U 90005D   26056.03326280  .00000116  00000-0  58408-4 0  9992
2 20439  98.8669  89.0104 0010308 195.2826 194.8382 14.33896038885868
LUSAT (LO-19)
1 20442U 90005G   26055.99252374  .00000132  00000-0  64082-4 0  9995
2 20442  98.8944  74.6598 0011769 170.0902 190.0515 14.34081851886310
UFO 2 (USA 95)
1 22787U 93056A   26056.03121594  .00000122  00000-0  00000+0 0  9997
2 22787  11.8553   4.1616 0008922 333.1291 217.5154  1.00269361117420
EYESAT-1 (AO-27)
1 22825U 93061C   26056.19039126  .00000086  00000-0  49827-4 0  9996
2 22825  98.7011 123.5895 0009400  72.2505 287.9703 14.30908286690983
ITAMSAT (IO-26) 
1 22826U 93061D   26056.13314633  .00000090  00000-0  50741-4 0  9992
2 22826  98.6958 123.4383 0009786  57.4509 302.7617 14.31331821691280
UFO 3 (USA 104)
1 23132U 94035A   26056.09534957 -.00000091  00000-0  00000+0 0  9993
2 23132  12.3175   6.3839 0005866 291.6503 243.4189  1.00265163130573
RADIO ROSTO (RS-15)
1 23439U 94085A   26056.19037059 -.00000052  00000-0 -28120-3 0  9995
2 23439  64.8156 124.3493 0152236  24.3884 336.4147 11.27583675283272
UFO 4 (USA 108)
1 23467U 95003A   26056.13096975 -.00000026  00000-0  00000+0 0  9996
2 23467   9.6654  13.5935 0003599 325.7475  35.0734  1.00271599113820
UFO 7 (USA 127)
1 23967U 96042A   26055.73464227 -.00000229  00000-0  00000-0 0  9995
2 23967  11.0083  17.6830 0002797 110.0940 263.0282  1.00246906108366
JAS-2 (FO-29)
1 24278U 96046B   26056.15220837 -.00000014  00000-0  20647-4 0  9994
2 24278  98.5400 280.2666 0350341  27.2734 334.6332 13.53268103458016
UFO 8 (USA 138)
1 25258U 98016A   26055.77000729 -.00000210  00000-0  00000+0 0  9999
2 25258  10.9944  23.4324 0008412 267.5315 291.5873  1.00287768102730
TECHSAT-1B (GO-32)
1 25397U 98043D   26055.95563351  .00000079  00000-0  54212-4 0  9999
2 25397  99.0012  45.9179 0001637 140.5312 219.5985 14.24401921435354
ISS (ZARYA)
1 25544U 98067A   26055.86355972  .00009683  00000-0  18823-3 0  9994
2 25544  51.6318 135.7592 0008386 130.0533 230.1192 15.48271528554340
UFO 10 (USA 146)
1 25967U 99063A   26055.73576895 -.00000191  00000-0  00000-0 0  9996
2 25967   9.8483  27.8324 0005497 289.9035  78.8420  1.00275391 96226
PCSAT (NO-44)
1 26931U 01043C   26056.05561645  .00000155  00000-0  88967-4 0  9993
2 26931  67.0511 174.2858 0007027 265.6100  94.4199 14.31904326274398
PROBA-1
1 26958U 01049B   26056.14149684  .00003147  00000-0  20760-3 0  9993
2 26958  97.9638  60.7894 0056525 140.3858 220.1520 15.06950117326749
SAUDISAT-1C (SO-50)
1 27607U 02058C   26056.13997707  .00001344  00000-0  17660-3 0  9994
2 27607  64.5515 115.5847 0074955 282.9533  76.3210 14.82725148247849
CUTE-1 (CO-55)
1 27844U 03031E   26055.49698846  .00000332  00000-0  16262-3 0  9992
2 27844  98.6781  65.4597 0010166 147.3349 212.8461 14.24253602175632
CUBESAT XI-IV (CO-57)
1 27848U 03031J   26055.99161460  .00000249  00000-0  12841-3 0  9994
2 27848  98.6808  65.7511 0009766 163.2008 196.9496 14.23550751175418
MOZHAYETS-4 (RS-22)
1 27939U 03042A   26056.23268705  .00001431  00000-0  22996-3 0  9991
2 27939  98.3428 237.4478 0010206 263.6718 204.6733 14.73213210199067
UFO 11 (USA 174)
1 28117U 03057A   26055.96920757 -.00000108  00000-0  00000+0 0  9996
2 28117   8.8323  34.3633 0003632 286.2466 258.5458  1.00272367 81324
CUBESAT XI-V (CO-58)
1 28895U 05043F   26055.87097007  .00001756  00000-0  28615-3 0  9994
2 28895  98.2811 209.2553 0013981 197.8681 162.2036 14.72252144 85220
CAPE-1
1 31130U 07012P   26055.86440835  .00001735  00000-0  32010-3 0  9999
2 31130  98.4346  27.4478 0085295  62.1634 298.8178 14.64512111  1917
CUTE-1.7+APD II (CO-65)
1 32785U 08021C   26056.17474100  .00005255  00000-0  34395-3 0  9993
2 32785  97.8182  35.4265 0010813  56.4458 303.7801 15.08158183968300
SEEDS-II (CO-66)
1 32791U 08021J   26055.96114953  .00016788  00000-0  60828-3 0  9996
2 32791  97.7509  48.8701 0003613  31.8048 328.3408 15.28448317970126
YUBILEINY (RS-30)
1 32953U 08025A   26056.15320288  .00000005  00000-0 -32108-4 0  9999
2 32953  82.4989  65.1257 0019051 192.6590 167.4013 12.43175376805776
KKS-1 (KISEKI)
1 33499U 09002H   26056.11585245  .00001556  00000-0  19934-3 0  9995
2 33499  98.1184 336.8208 0006697 300.3126  59.7424 14.82771580919580
SWISSCUBE
1 35932U 09051B   26056.16032661  .00001080  00000-0  22421-3 0  9994
2 35932  98.4110 322.0805 0006226 191.9718 168.1336 14.62218303872789
BEESAT
1 35933U 09051C   26056.18133323  .00000902  00000-0  19186-3 0  9990
2 35933  98.4040 321.9670 0004479 203.9346 156.1647 14.61498350872827
ITUPSAT-1
1 35935U 09051E   26056.14326940  .00000830  00000-0  18213-3 0  9997
2 35935  98.4128 321.2354 0006483 220.0901 139.9821 14.60236092872388
PROBA-2
1 36037U 09059B   26056.06476928  .00000248  00000-0  68510-4 0  9991
2 36037  98.2420 240.9747 0011977 266.6779  93.3048 14.54780339865221
XIWANG-1 (HOPE-1)
1 36122U 09072B   26056.14509838  .00000294  00000-0  88495-3 0  9991
2 36122 100.3894  11.8363 0007907 126.2485 233.9360 13.16436783778262
EWS-G2 (GOES-15)
1 36411U 10008A   26056.03814931  .00000013  00000-0  00000+0 0  9995
2 36411   0.9902  85.2797 0000690 347.9430 158.9784  1.00276535 58510
TISAT-1
1 36799U 10035E   26055.78445479  .00020307  00000-0  76982-3 0  9996
2 36799  98.0631 352.8376 0000805   3.4710 356.6532 15.26924459850522
HORYU-2
1 38340U 12025D   26056.07561302  .00003616  00000-0  37885-3 0  9991
2 38340  98.1987 184.6072 0008420 182.7348 177.3824 14.90226710732025
AAUSAT-3
1 39087U 13009B   26055.46574435  .00000776  00000-0  26110-3 0  9999
2 39087  98.3677 241.8322 0011394 185.7769 174.3289 14.39770515680956
STRAND-1
1 39090U 13009E   26055.47477702  .00000364  00000-0  13680-3 0  9994
2 39090  98.3874 238.4957 0008272 201.0574 159.0274 14.37081435680871
CUBEBUG-1 (CAPITAN BETO)
1 39153U 13018D   26055.86880277  .00003371  00000-0  30231-3 0  9994
2 39153  98.1501 210.9634 0012109 156.5078 203.6698 14.96442316694268
PROBA-V
1 39159U 13021A   26055.66256284  .00000088  00000-0  56579-4 0  9993
2 39159  98.3487  39.8852 0005362  99.5075 260.6711 14.23569773665102
ZACUBE-1 (TSHEPISOSAT)
1 39417U 13066B   26056.12430722  .00004363  00000-0  34830-3 0  9997
2 39417  97.8185  17.8872 0040940 262.9399  96.7168 15.00168818663925
TRITON-1
1 39427U 13066M   26056.17315513  .00004016  00000-0  48932-3 0  9996
2 39427  97.8292 328.5521 0089492 238.9640 120.2764 14.81117562657505
DELFI-N3XT
1 39428U 13066N   26055.34810499  .00006704  00000-0  60871-3 0  9990
2 39428  97.8342 335.9033 0075428 221.1734 138.3781 14.93438263657779
GOMX-1
1 39430U 13066Q   26056.15617530  .00002237  00000-0  34187-3 0  9992
2 39430  97.6578 263.6424 0130815  77.3559 284.2238 14.69042427653466
HUMSAT-D
1 39433U 13066T   26055.53361742  .00506038  98865-4  17432-2 0  9998
2 39433  97.4906  67.3241 0005355 158.3096 201.8404 15.89544732669369
VELOX-PII
1 39438U 13066Y   26055.82411111  .00004277  00000-0  41273-3 0  9990
2 39438  97.8620   7.2037 0053791 357.2551   2.8365 14.92324638661079
CUBEBUG-2 (LO-74)
1 39440U 13066AA  26056.09668145  .00004188  00000-0  39694-3 0  9999
2 39440  97.8791   4.7538 0060079  40.1628 320.4008 14.92771459660269
FUNCUBE-1 (AO-73)
1 39444U 13066AE  26055.63347911  .00007921  00000-0  51658-3 0  9999
2 39444  97.8167  24.9557 0035859 224.2554 135.5805 15.07633725662695
UWE-3
1 39446U 13066AG  26055.82149301  .00006274  00000-0  55118-3 0  9990
2 39446  97.8576  11.3072 0049210 336.6068  23.2913 14.95997964660771
UNISAT-6
1 40012U 14033C   26055.89317529  .00003369  00000-0  37009-3 0  9993
2 40012  97.7702 210.7340 0046683  79.1892 281.4573 14.87524288629467
DUCHIFAT-1
1 40021U 14033M   26056.10248227  .00044051  00000-0  83645-3 0  9996
2 40021  98.0663 101.0636 0007056 119.4234 240.7720 15.48140909638325
FUNCUBE-3 (EO-79)
1 40025U 14033R   26055.97414904  .00008213  00000-0  42866-3 0  9991
2 40025  98.1008  59.4023 0007161 245.0281 115.0206 15.16201998636012
SMAP
1 40376U 15003A   26056.14796345  .00000489  00000-0  10389-3 0  9992
2 40376  98.1310  64.8125 0001058 111.2860 248.8455 14.63319767591236
LILACSAT-2
1 40908U 15049K   26056.16630135  .00015298  00000-0  29935-3 0  9990
2 40908  97.4835  88.9601 0005731 307.6937  52.3792 15.47499515578404
LAPAN-A2 (IO-86)
1 40931U          25360.30710720  .00000000  00000-0  12800-3 0    00
2 40931   6.0006 332.5373 0012733 338.8432   8.1437 14.79075515    01
LQSAT
1 40958U 15057A   26056.19857690  .00000736  00000-0  11218-3 0  9990
2 40958  97.6657  55.1552 0015561 277.6807  82.2637 14.76609438558785
PRATHAM
1 41783U 16059A   26055.98272325  .00000695  00000-0  13152-3 0  9995
2 41783  97.8311  57.7961 0030464 213.8905 146.0354 14.67011098503068
ALSAT-1N
1 41789U 16059G   26056.21886324  .00001012  00000-0  17942-3 0  9993
2 41789  97.8035  64.5649 0025731 182.9135 177.1925 14.69082897503569
CAS-2T & KS-1Q
1 41847U 16066G   26056.16898054  .00001337  00000-0  19493-3 0  9996
2 41847  98.3911 133.1560 0343841 109.3396 254.5306 14.44421622488623
